{"type": "FeatureCollection", "features": [ {"type": "Feature", "properties": {"norad_id": 58654, "name": "BEIDOU-3 M28 (C50)", "group": "beidou", "lat": 13.705512529965173, "lon": 78.15547326176983, "alt_km": 21528.62763859215, "timestamp": "2025-12-14T14:39:29.636083+00:00", "meta": {"OBJECT_NAME": "BEIDOU-3 M28 (C50)", "OBJECT_ID": "2023-207A", "EPOCH": "2025-12-11T21:37:33.991968", "MEAN_MOTION": 1.86229651, "ECCENTRICITY": 0.00023562, "INCLINATION": 55.5838, "RA_OF_ASC_NODE": 68.6297, "ARG_OF_PERICENTER": 269.3243, "MEAN_ANOMALY": 90.6691, "EPHEMERIS_TYPE": 0, "CLASSIFICATION_TYPE": "U", "NORAD_CAT_ID": 58654, "ELEMENT_SET_NO": 999, "REV_AT_EPOCH": 1335, "BSTAR": 0, "MEAN_MOTION_DOT": -6.9e-07, "MEAN_MOTION_DDOT": 0}, "tle": {"line1": "1 58654U 23207A   25345.90108787 -.00000069  00000+0  00000+0 0  9995", "line2": "2 58654  55.5838  68.6297 0002356 269.3243  90.6691  1.86229651 13350"}}, "geometry": {"type": "Point", "coordinates": [78.15547326176983, 13.705512529965173]}}, {"type": "Feature", "properties": {"norad_id": 58655, "name": "BEIDOU-3 M26 (C48)", "group": "beidou", "lat": 22.52991769030289, "lon": -127.96472535028083, "alt_km": 21527.840116034105, "timestamp": "2025-12-14T14:39:29.636094+00:00", "meta": {"OBJECT_NAME": "BEIDOU-3 M26 (C48)", "OBJECT_ID": "2023-207B", "EPOCH": "2025-12-13T07:25:48.468864", "MEAN_MOTION": 1.86231261, "ECCENTRICITY": 0.00038294, "INCLINATION": 55.587, "RA_OF_ASC_NODE": 68.5683, "ARG_OF_PERICENTER": 255.9601, "MEAN_ANOMALY": 104.0159, "EPHEMERIS_TYPE": 0, "CLASSIFICATION_TYPE": "U", "NORAD_CAT_ID": 58655, "ELEMENT_SET_NO": 999, "REV_AT_EPOCH": 1336, "BSTAR": 0, "MEAN_MOTION_DOT": -7.9e-07, "MEAN_MOTION_DDOT": 0}, "tle": {"line1": "1 58655U 23207B   25347.30958876 -.00000079  00000+0  00000+0 0  9995", "line2": "2 58655  55.5870  68.5683 0003829 255.9601 104.0159  1.86231261 13360"}}, "geometry": {"type": "Point", "coordinates": [-127.96472535028083, 22.52991769030289]}}, {"type": "Feature", "properties": {"norad_id": 61186, "name": "BEIDOU-3 M25 (C47)", "group": "beidou", "lat": -54.6327141278533, "lon": -142.66063167498106, "alt_km": 21520.65689595266, "timestamp": "2025-12-14T14:39:29.636105+00:00", "meta": {"OBJECT_NAME": "BEIDOU-3 M25 (C47)", "OBJECT_ID": "2024-168B", "EPOCH": "2025-12-13T09:51:38.613312", "MEAN_MOTION": 1.86230198, "ECCENTRICITY": 0.00054273, "INCLINATION": 54.6413, "RA_OF_ASC_NODE": 308.6962, "ARG_OF_PERICENTER": 297.8799, "MEAN_ANOMALY": 246.8955, "EPHEMERIS_TYPE": 0, "CLASSIFICATION_TYPE": "U", "NORAD_CAT_ID": 61186, "ELEMENT_SET_NO": 999, "REV_AT_EPOCH": 832, "BSTAR": 0, "MEAN_MOTION_DOT": -9.7e-07, "MEAN_MOTION_DDOT": 0}, "tle": {"line1": "1 61186U 24168B   25347.41086358 -.00000097  00000+0  00000+0 0  9994", "line2": "2 61186  54.6413 308.6962 0005427 297.8799 246.8955  1.86230198  8320"}}, "geometry": {"type": "Point", "coordinates": [-142.66063167498106, -54.6327141278533]}}, {"type": "Feature", "properties": {"norad_id": 61187, "name": "BEIDOU-3 M27 (C49)", "group": "beidou", "lat": 34.66914034613218, "lon": -21.98243860680993, "alt_km": 21521.27702060629, "timestamp": "2025-12-14T14:39:29.636116+00:00", "meta": {"OBJECT_NAME": "BEIDOU-3 M27 (C49)", "OBJECT_ID": "2024-168C", "EPOCH": "2025-12-13T04:47:06.571968", "MEAN_MOTION": 1.86230336, "ECCENTRICITY": 0.00023989, "INCLINATION": 54.6369, "RA_OF_ASC_NODE": 308.6872, "ARG_OF_PERICENTER": 337.1666, "MEAN_ANOMALY": 200.7639, "EPHEMERIS_TYPE": 0, "CLASSIFICATION_TYPE": "U", "NORAD_CAT_ID": 61187, "ELEMENT_SET_NO": 999, "REV_AT_EPOCH": 579, "BSTAR": 0, "MEAN_MOTION_DOT": -9.6e-07, "MEAN_MOTION_DDOT": 0}, "tle": {"line1": "1 61187U 24168C   25347.19938162 -.00000096  00000+0  00000+0 0  9998", "line2": "2 61187  54.6369 308.6872 0002398 337.1666 200.7639  1.86230336  5796"}}, "geometry": {"type": "Point", "coordinates": [-21.98243860680993, 34.66914034613218]}}]}